#dV2023  2  1 10  0  0.00000000    1682       CTS   FIT  GFZ
## 2247 295200.00000000    30.00000000 59976 0.4166666666667
+    1   L64  0  0  0  0  0  0  0  0  0  0  0  0  0  0  0  0
+          0  0  0  0  0  0  0  0  0  0  0  0  0  0  0  0  0
+          0  0  0  0  0  0  0  0  0  0  0  0  0  0  0  0  0
+          0  0  0  0  0  0  0  0  0  0  0  0  0  0  0  0  0
+          0  0  0  0  0  0  0  0  0  0  0  0  0  0  0  0  0
++         0  0  0  0  0  0  0  0  0  0  0  0  0  0  0  0  0
++         0  0  0  0  0  0  0  0  0  0  0  0  0  0  0  0  0
++         0  0  0  0  0  0  0  0  0  0  0  0  0  0  0  0  0
++         0  0  0  0  0  0  0  0  0  0  0  0  0  0  0  0  0
++         0  0  0  0  0  0  0  0  0  0  0  0  0  0  0  0  0
%c L  cc GPS ccc cccc cccc cccc cccc ccccc ccccc ccccc ccccc
%c cc cc ccc ccc cccc cccc cccc cccc ccccc ccccc ccccc ccccc
%f  0.0000000  0.000000000  0.00000000000  0.000000000000000
%f  0.0000000  0.000000000  0.00000000000  0.000000000000000
%i    0    0    0    0      0      0      0      0         0
%i    0    0    0    0      0      0      0      0         0
/* CCCCCCCCCCCCCCCCCCCCCCCCCCCCCCCCCCCCCCCCCCCCCCCCCCCCCCCCCCCCCCCCCCCCCCCCCCCCC
/* C                             GFZ RSO-ORBIT                                 C
/* C DOI: https://doi.org/10.5880/GFZ_ORBIT/RSO/L64_G_v02                      C
/* C                                                                           C
/* C DORIS        RMS: not applicable                                          C
/* C GNSS-E Code  RMS: not applicable                                          C
/* C GNSS-E Phase RMS: not applicable                                          C
/* C GNSS-G Code  RMS:  50.142 [cm]   Obs.acc.:     13662 Obs.eli.:       986  C
/* C GNSS-G Phase RMS:   4.187 [mm]   Obs.acc.:     13662 Obs.eli.:       986  C
/* C SLR          RMS:   0.900 [cm]   Obs.acc.:        33 Obs.eli.:         0  C
/* C                                                                           C
/* CCCCCCCCCCCCCCCCCCCCCCCCCCCCCCCCCCCCCCCCCCCCCCCCCCCCCCCCCCCCCCCCCCCCCCCCCCCCC
*  2023  2  1 17 13 30.00000000
PL64   2023.831922   -713.282225   6521.449865   6592.645444
VL64 -67256.049539  26589.918910  23628.466734 999999.999999
*  2023  2  1 17 14  0.00000000
PL64   1821.165021   -632.692687   6588.715107   6593.105211
VL64 -67842.459361  27131.951737  21210.872392 999999.999999
*  2023  2  1 17 14 30.00000000
PL64   1616.853963   -550.517907   6648.691499   6593.565007
VL64 -68352.074345  27646.593153  18769.677960 999999.999999
*  2023  2  1 17 15  0.00000000
PL64   1411.129812   -466.841424   6701.312253   6594.024489
VL64 -68784.455524  28132.939787  16307.562199 999999.999999
*  2023  2  1 17 15 30.00000000
PL64   1204.224818   -381.749439   6746.518648   6594.484394
VL64 -69139.251247  28590.117076  13827.222862 999999.999999
*  2023  2  1 17 16  0.00000000
PL64    996.372160   -295.330737   6784.260082   6594.943988
VL64 -69416.193937  29017.279103  11331.375796 999999.999999
*  2023  2  1 17 16 30.00000000
PL64    787.805693   -207.676596   6814.494130   6595.403723
VL64 -69615.101145  29413.610221   8822.756737 999999.999999
*  2023  2  1 17 17  0.00000000
PL64    578.759686   -118.880691   6837.186602   6595.863795
VL64 -69735.878829  29778.327422   6304.118028 999999.999999
*  2023  2  1 17 17 30.00000000
PL64    369.468558    -29.038996   6852.311582   6596.322962
VL64 -69778.521137  30110.681545   3778.223118 999999.999999
*  2023  2  1 17 18  0.00000000
PL64    160.166617     61.750319   6859.851456   6596.783149
VL64 -69743.108955  30409.958216   1247.843418 999999.999999
*  2023  2  1 17 18 30.00000000
PL64    -48.912205    153.386996   6859.796935   6597.242951
VL64 -69629.809603  30675.479095  -1284.243833 999999.999999
*  2023  2  1 17 19  0.00000000
PL64   -257.534605    245.768796   6852.147066   6597.702663
VL64 -69438.876948  30906.603033  -3815.258413 999999.999999
*  2023  2  1 17 19 30.00000000
PL64   -465.468171    338.791613   6836.909237   6598.162729
VL64 -69170.650720  31102.726922  -6342.420026 999999.999999
*  2023  2  1 17 20  0.00000000
PL64   -672.481638    432.349592   6814.099177   6598.622387
VL64 -68825.556192  31263.286875  -8862.950553 999999.999999
*  2023  2  1 17 20 30.00000000
PL64   -878.345148    526.335246   6783.740938   6599.081914
VL64 -68404.104290  31387.759436 -11374.077463 999999.999999
*  2023  2  1 17 21  0.00000000
PL64  -1082.830499    620.639577   6745.866879   6599.541805
VL64 -67906.890080  31475.662011 -13873.037582 999999.999999
*  2023  2  1 17 21 30.00000000
PL64  -1285.711400    715.152205   6700.517632   6600.001387
VL64 -67334.590867  31526.553438 -16357.078263 999999.999999
*  2023  2  1 17 22  0.00000000
PL64  -1486.763716    809.761487   6647.742071   6600.461224
VL64 -66687.966990  31540.035789 -18823.458365 999999.999999
*  2023  2  1 17 22 30.00000000
PL64  -1685.765719    904.354656   6587.597268   6600.921177
VL64 -65967.862911  31515.756003 -21269.452816 999999.999999
*  2023  2  1 17 23  0.00000000
PL64  -1882.498338    998.817952   6520.148444   6601.380554
VL64 -65175.205196  31453.406108 -23692.357543 999999.999999
*  2023  2  1 17 23 30.00000000
PL64  -2076.745400   1093.036759   6445.468895   6601.840493
VL64 -64310.999924  31352.723445 -26089.491661 999999.999999
*  2023  2  1 17 24  0.00000000
PL64  -2268.293872   1186.895742   6363.639922   6602.300434
VL64 -63376.331605  31213.491469 -28458.198967 999999.999999
*  2023  2  1 17 24 30.00000000
PL64  -2456.934087   1280.278987   6274.750758   6602.759778
VL64 -62372.362843  31035.540752 -30795.850314 999999.999999
*  2023  2  1 17 25  0.00000000
PL64  -2642.459986   1373.070144   6178.898476   6603.219594
VL64 -61300.333611  30818.749713 -33099.846824 999999.999999
*  2023  2  1 17 25 30.00000000
PL64  -2824.669342   1465.152570   6076.187899   6603.679419
VL64 -60161.559936  30563.045066 -35367.622695 999999.999999
*  2023  2  1 17 26  0.00000000
PL64  -3003.363990   1556.409475   5966.731492   6604.139288
VL64 -58957.433057  30268.402555 -37596.647512 999999.999999
*  2023  2  1 17 26 30.00000000
PL64  -3178.350050   1646.724071   5850.649258   6604.599178
VL64 -57689.418813  29934.847812 -39784.429719 999999.999999
*  2023  2  1 17 27  0.00000000
PL64  -3349.438151   1735.979724   5728.068606   6605.058736
VL64 -56359.055342  29562.456768 -41928.520848 999999.999999
*  2023  2  1 17 27 30.00000000
PL64  -3516.443638   1824.060100   5599.124228   6605.518294
VL64 -54967.950188  29151.355822 -44026.517882 999999.999999
*  2023  2  1 17 28  0.00000000
PL64  -3679.186784   1910.849325   5463.957951   6605.978331
VL64 -53517.779284  28701.722648 -46076.065032 999999.999999
*  2023  2  1 17 28 30.00000000
PL64  -3837.492989   1996.232132   5322.718595   6606.437890
VL64 -52010.285756  28213.786701 -48074.857095 999999.999999
*  2023  2  1 17 29  0.00000000
PL64  -3991.192982   2080.094021   5175.561817   6606.897599
VL64 -50447.277820  27687.828664 -50020.642319 999999.999999
*  2023  2  1 17 29 30.00000000
PL64  -4140.123012   2162.321411   5022.649946   6607.357530
VL64 -48830.627633  27124.179909 -51911.224443 999999.999999
*  2023  2  1 17 30  0.00000000
PL64  -4284.125039   2242.801791   4864.151812   6607.816971
VL64 -47162.270877  26523.222726 -53744.467107 999999.999999
*  2023  2  1 17 30 30.00000000
PL64  -4423.046922   2321.423871   4700.242555   6608.276496
VL64 -45444.200948  25885.390100 -55518.300737 999999.999999
*  2023  2  1 17 31  0.00000000
PL64  -4556.742574   2398.077738   4531.103423   6608.736636
VL64 -43678.461808  25211.165521 -57230.720563 999999.999999
*  2023  2  1 17 31 30.00000000
PL64  -4685.072120   2472.655005   4356.921590   6609.196313
VL64 -41867.151309  24501.084014 -58879.783667 999999.999999
*  2023  2  1 17 32  0.00000000
PL64  -4807.902062   2545.048969   4177.889954   6609.656120
VL64 -40012.422592  23755.731683 -60463.616413 999999.999999
*  2023  2  1 17 32 30.00000000
PL64  -4925.105437   2615.154759   3994.206924   6610.115587
VL64 -38116.477484  22975.744286 -61980.419401 999999.999999
*  2023  2  1 17 33  0.00000000
PL64  -5036.561955   2682.869483   3806.076195   6610.575221
VL64 -36181.562394  22161.806983 -63428.467585 999999.999999
*  2023  2  1 17 33 30.00000000
PL64  -5142.158130   2748.092383   3613.706525   6611.035176
VL64 -34209.966605  21314.654405 -64806.111354 999999.999999
*  2023  2  1 17 34  0.00000000
PL64  -5241.787403   2810.724977   3417.311506   6611.494587
VL64 -32204.020415  20435.070400 -66111.779118 999999.999999
*  2023  2  1 17 34 30.00000000
PL64  -5335.350269   2870.671205   3217.109320   6611.954407
VL64 -30166.092316  19523.886943 -67343.979998 999999.999999
*  2023  2  1 17 35  0.00000000
PL64  -5422.754378   2927.837576   3013.322504   6612.413924
VL64 -28098.585990  18581.982771 -68501.305460 999999.999999
*  2023  2  1 17 35 30.00000000
PL64  -5503.914642   2982.133304   2806.177691   6612.873941
VL64 -26003.937952  17610.283014 -69582.430763 999999.999999
*  2023  2  1 17 36  0.00000000
PL64  -5578.753330   3033.470449   2595.905361   6613.333654
VL64 -23884.614925  16609.759190 -70586.117441 999999.999999
*  2023  2  1 17 36 30.00000000
PL64  -5647.200150   3081.764051   2382.739577   6613.793186
VL64 -21743.110465  15581.428341 -71511.215951 999999.999999
*  2023  2  1 17 37  0.00000000
PL64  -5709.192327   3126.932271   2166.917715   6614.252887
VL64 -19581.941276  14526.351466 -72356.667551 999999.999999
*  2023  2  1 17 37 30.00000000
PL64  -5764.674669   3168.896516   1948.680188   6614.712748
VL64 -17403.643809  13445.632145 -73121.505697 999999.999999
*  2023  2  1 17 38  0.00000000
PL64  -5813.599614   3207.581565   1728.270170   6615.172204
VL64 -15210.771061  12340.415076 -73804.857792 999999.999999
*  2023  2  1 17 38 30.00000000
PL64  -5855.927285   3242.915691   1505.933308   6615.632031
VL64 -13005.888621  11211.884083 -74405.946878 999999.999999
EOF
